[{"OBJECT_NAME":"STARLINK-3992","OBJECT_ID":"2022-052AF","EPOCH":"2025-12-08T05:42:49.536576","MEAN_MOTION":15.08836567,"ECCENTRICITY":0.00012109,"INCLINATION":53.2177,"RA_OF_ASC_NODE":319.664,"ARG_OF_PERICENTER":95.4222,"MEAN_ANOMALY":264.6908,"EPHEMERIS_TYPE":0,"CLASSIFICATION_TYPE":"U","NORAD_CAT_ID":52627,"ELEMENT_SET_NO":999,"REV_AT_EPOCH":19719,"BSTAR":7.604453e-6,"MEAN_MOTION_DOT":-1.67e-6,"MEAN_MOTION_DDOT":0},{"OBJECT_NAME":"STARLINK-4001","OBJECT_ID":"2022-052AG","EPOCH":"2025-12-08T06:52:22.773216","MEAN_MOTION":15.08832503,"ECCENTRICITY":0.00013279,"INCLINATION":53.2178,"RA_OF_ASC_NODE":334.4461,"ARG_OF_PERICENTER":86.5173,"MEAN_ANOMALY":273.5971,"EPHEMERIS_TYPE":0,"CLASSIFICATION_TYPE":"U","NORAD_CAT_ID":52628,"ELEMENT_SET_NO":999,"REV_AT_EPOCH":19698,"BSTAR":2.9019218e-5,"MEAN_MOTION_DOT":1.74e-6,"MEAN_MOTION_DDOT":0},{"OBJECT_NAME":"STARLINK-4022","OBJECT_ID":"2022-052AH","EPOCH":"2025-12-08T05:32:13.007040","MEAN_MOTION":15.0884132,"ECCENTRICITY":0.00011524,"INCLINATION":53.2172,"RA_OF_ASC_NODE":319.6582,"ARG_OF_PERICENTER":93.9831,"MEAN_ANOMALY":266.1293,"EPHEMERIS_TYPE":0,"CLASSIFICATION_TYPE":"U","NORAD_CAT_ID":52629,"ELEMENT_SET_NO":999,"REV_AT_EPOCH":19718,"BSTAR":3.4775033e-5,"MEAN_MOTION_DOT":2.66e-6,"MEAN_MOTION_DDOT":0},{"OBJECT_NAME":"STARLINK-3989","OBJECT_ID":"2022-052AJ","EPOCH":"2025-12-08T07:28:48.862560","MEAN_MOTION":15.0883732,"ECCENTRICITY":0.00019349,"INCLINATION":53.2187,"RA_OF_ASC_NODE":319.3336,"ARG_OF_PERICENTER":105.5765,"MEAN_ANOMALY":254.5441,"EPHEMERIS_TYPE":0,"CLASSIFICATION_TYPE":"U","NORAD_CAT_ID":52630,"ELEMENT_SET_NO":999,"REV_AT_EPOCH":19719,"BSTAR":-2.2506769e-5,"MEAN_MOTION_DOT":-6.46e-6,"MEAN_MOTION_DDOT":0},{"OBJECT_NAME":"STARLINK-3794","OBJECT_ID":"2022-052AK","EPOCH":"2025-12-08T05:33:36.223200","MEAN_MOTION":15.08839613,"ECCENTRICITY":0.000129,"INCLINATION":53.2187,"RA_OF_ASC_NODE":319.7023,"ARG_OF_PERICENTER":91.5671,"MEAN_ANOMALY":268.5469,"EPHEMERIS_TYPE":0,"CLASSIFICATION_TYPE":"U","NORAD_CAT_ID":52631,"ELEMENT_SET_NO":999,"REV_AT_EPOCH":19719,"BSTAR":0.00010765197,"MEAN_MOTION_DOT":1.426e-5,"MEAN_MOTION_DDOT":0},{"OBJECT_NAME":"STARLINK-3995","OBJECT_ID":"2022-052AL","EPOCH":"2025-12-08T07:23:30.398208","MEAN_MOTION":15.08841126,"ECCENTRICITY":0.00014926,"INCLINATION":53.2191,"RA_OF_ASC_NODE":319.3515,"ARG_OF_PERICENTER":93.675,"MEAN_ANOMALY":266.4413,"EPHEMERIS_TYPE":0,"CLASSIFICATION_TYPE":"U","NORAD_CAT_ID":52632,"ELEMENT_SET_NO":999,"REV_AT_EPOCH":19720,"BSTAR":7.409882e-5,"MEAN_MOTION_DOT":8.92e-6,"MEAN_MOTION_DDOT":0},{"OBJECT_NAME":"STARLINK-3994","OBJECT_ID":"2022-052AM","EPOCH":"2025-12-08T05:16:19.183872","MEAN_MOTION":15.08850187,"ECCENTRICITY":0.00015166,"INCLINATION":53.2199,"RA_OF_ASC_NODE":319.7472,"ARG_OF_PERICENTER":92.2198,"MEAN_ANOMALY":267.8968,"EPHEMERIS_TYPE":0,"CLASSIFICATION_TYPE":"U","NORAD_CAT_ID":52633,"ELEMENT_SET_NO":999,"REV_AT_EPOCH":19719,"BSTAR":9.5238364e-5,"MEAN_MOTION_DOT":1.228e-5,"MEAN_MOTION_DDOT":0},{"OBJECT_NAME":"STARLINK-3974","OBJECT_ID":"2022-052AN","EPOCH":"2025-12-08T05:37:31.580256","MEAN_MOTION":15.08838681,"ECCENTRICITY":0.00015303,"INCLINATION":53.2199,"RA_OF_ASC_NODE":319.7081,"ARG_OF_PERICENTER":94.7894,"MEAN_ANOMALY":265.3273,"EPHEMERIS_TYPE":0,"CLASSIFICATION_TYPE":"U","NORAD_CAT_ID":52634,"ELEMENT_SET_NO":999,"REV_AT_EPOCH":19718,"BSTAR":1.45154e-5,"MEAN_MOTION_DOT":-5.7e-7,"MEAN_MOTION_DDOT":0},{"OBJECT_NAME":"STARLINK-3978","OBJECT_ID":"2022-052AP","EPOCH":"2025-12-08T04:51:09.594432","MEAN_MOTION":15.08837497,"ECCENTRICITY":0.00014432,"INCLINATION":53.2182,"RA_OF_ASC_NODE":309.825,"ARG_OF_PERICENTER":91.352,"MEAN_ANOMALY":268.7638,"EPHEMERIS_TYPE":0,"CLASSIFICATION_TYPE":"U","NORAD_CAT_ID":52635,"ELEMENT_SET_NO":999,"REV_AT_EPOCH":19732,"BSTAR":-2.9663564e-5,"MEAN_MOTION_DOT":-7.6e-6,"MEAN_MOTION_DDOT":0},{"OBJECT_NAME":"STARLINK-3967","OBJECT_ID":"2022-052AQ","EPOCH":"2025-12-08T05:26:55.417920","MEAN_MOTION":15.08840424,"ECCENTRICITY":0.00011422,"INCLINATION":53.2193,"RA_OF_ASC_NODE":319.7149,"ARG_OF_PERICENTER":89.6962,"MEAN_ANOMALY":270.4161,"EPHEMERIS_TYPE":0,"CLASSIFICATION_TYPE":"U","NORAD_CAT_ID":52636,"ELEMENT_SET_NO":999,"REV_AT_EPOCH":19718,"BSTAR":-0.00012139544,"MEAN_MOTION_DOT":-2.219e-5,"MEAN_MOTION_DDOT":0},{"OBJECT_NAME":"STARLINK-3961","OBJECT_ID":"2022-052AR","EPOCH":"2025-12-08T04:45:51.700320","MEAN_MOTION":15.08822184,"ECCENTRICITY":0.00019462,"INCLINATION":53.2192,"RA_OF_ASC_NODE":309.8423,"ARG_OF_PERICENTER":95.2208,"MEAN_ANOMALY":264.9006,"EPHEMERIS_TYPE":0,"CLASSIFICATION_TYPE":"U","NORAD_CAT_ID":52637,"ELEMENT_SET_NO":999,"REV_AT_EPOCH":19812,"BSTAR":0.00019503153,"MEAN_MOTION_DOT":2.816e-5,"MEAN_MOTION_DDOT":0},{"OBJECT_NAME":"STARLINK-3941","OBJECT_ID":"2022-052AS","EPOCH":"2025-12-08T05:21:37.106496","MEAN_MOTION":15.08843749,"ECCENTRICITY":0.00013694,"INCLINATION":53.2171,"RA_OF_ASC_NODE":319.7292,"ARG_OF_PERICENTER":93.008,"MEAN_ANOMALY":267.1069,"EPHEMERIS_TYPE":0,"CLASSIFICATION_TYPE":"U","NORAD_CAT_ID":52638,"ELEMENT_SET_NO":999,"REV_AT_EPOCH":19799,"BSTAR":3.7573098e-5,"MEAN_MOTION_DOT":3.1e-6,"MEAN_MOTION_DDOT":0},{"OBJECT_NAME":"STARLINK-3968","OBJECT_ID":"2022-052AT","EPOCH":"2025-12-08T04:29:57.456384","MEAN_MOTION":15.08839452,"ECCENTRICITY":0.00011629,"INCLINATION":53.2199,"RA_OF_ASC_NODE":309.8901,"ARG_OF_PERICENTER":94.388,"MEAN_ANOMALY":265.7245,"EPHEMERIS_TYPE":0,"CLASSIFICATION_TYPE":"U","NORAD_CAT_ID":52639,"ELEMENT_SET_NO":999,"REV_AT_EPOCH":19812,"BSTAR":7.2412417e-5,"MEAN_MOTION_DOT":8.65e-6,"MEAN_MOTION_DDOT":0},{"OBJECT_NAME":"STARLINK-3977","OBJECT_ID":"2022-052AU","EPOCH":"2025-12-08T04:56:27.315744","MEAN_MOTION":15.08840373,"ECCENTRICITY":0.00014173,"INCLINATION":53.2193,"RA_OF_ASC_NODE":309.8376,"ARG_OF_PERICENTER":89.3552,"MEAN_ANOMALY":270.7603,"EPHEMERIS_TYPE":0,"CLASSIFICATION_TYPE":"U","NORAD_CAT_ID":52640,"ELEMENT_SET_NO":999,"REV_AT_EPOCH":19731,"BSTAR":3.6130899e-5,"MEAN_MOTION_DOT":2.87e-6,"MEAN_MOTION_DDOT":0},{"OBJECT_NAME":"STARLINK-3991","OBJECT_ID":"2022-052AV","EPOCH":"2025-12-08T04:52:34.343328","MEAN_MOTION":15.08820859,"ECCENTRICITY":0.0001219,"INCLINATION":53.218,"RA_OF_ASC_NODE":310.0224,"ARG_OF_PERICENTER":87.9019,"MEAN_ANOMALY":272.2113,"EPHEMERIS_TYPE":0,"CLASSIFICATION_TYPE":"U","NORAD_CAT_ID":52641,"ELEMENT_SET_NO":999,"REV_AT_EPOCH":19732,"BSTAR":-0.00015720283,"MEAN_MOTION_DOT":-2.787e-5,"MEAN_MOTION_DDOT":0},{"OBJECT_NAME":"STARLINK-3971","OBJECT_ID":"2022-052AW","EPOCH":"2025-12-08T04:40:35.384736","MEAN_MOTION":15.08815798,"ECCENTRICITY":0.00012921,"INCLINATION":53.218,"RA_OF_ASC_NODE":309.8555,"ARG_OF_PERICENTER":94.1622,"MEAN_ANOMALY":265.9518,"EPHEMERIS_TYPE":0,"CLASSIFICATION_TYPE":"U","NORAD_CAT_ID":52642,"ELEMENT_SET_NO":999,"REV_AT_EPOCH":19731,"BSTAR":-7.5108017e-5,"MEAN_MOTION_DOT":-1.482e-5,"MEAN_MOTION_DDOT":0}]
