STARLINK-3992           
1 52627U 22052AF  25342.23807334 -.00000167  00000+0  76045-5 0  9990
2 52627  53.2177 319.6640 0001210  95.4222 264.6908 15.08836567197197
STARLINK-4001           
1 52628U 22052AG  25342.28637469  .00000174  00000+0  29019-4 0  9991
2 52628  53.2178 334.4461 0001327  86.5173 273.5971 15.08832503196981
STARLINK-4022           
1 52629U 22052AH  25342.23070610  .00000266  00000+0  34775-4 0  9993
2 52629  53.2172 319.6582 0001152  93.9831 266.1293 15.08841320197189
STARLINK-3989           
1 52630U 22052AJ  25342.31167665 -.00000646  00000+0 -22507-4 0  9995
2 52630  53.2187 319.3336 0001934 105.5765 254.5441 15.08837320197197
STARLINK-3794           
1 52631U 22052AK  25342.23166925  .00001426  00000+0  10765-3 0  9992
2 52631  53.2187 319.7023 0001290  91.5671 268.5469 15.08839613197192
STARLINK-3995           
1 52632U 22052AL  25342.30799072  .00000892  00000+0  74099-4 0  9993
2 52632  53.2191 319.3515 0001492  93.6750 266.4413 15.08841126197205
STARLINK-3994           
1 52633U 22052AM  25342.21966648  .00001228  00000+0  95238-4 0  9991
2 52633  53.2199 319.7472 0001516  92.2198 267.8968 15.08850187197193
STARLINK-3974           
1 52634U 22052AN  25342.23439329 -.00000057  00000+0  14515-4 0  9994
2 52634  53.2199 319.7081 0001530  94.7894 265.3273 15.08838681197182
STARLINK-3978           
1 52635U 22052AP  25342.20219438 -.00000760  00000+0 -29664-4 0  9992
2 52635  53.2182 309.8250 0001443  91.3520 268.7638 15.08837497197327
STARLINK-3967           
1 52636U 22052AQ  25342.22703030 -.00002219  00000+0 -12140-3 0  9992
2 52636  53.2193 319.7149 0001142  89.6962 270.4161 15.08840424197182
STARLINK-3961           
1 52637U 22052AR  25342.19851505  .00002816  00000+0  19503-3 0  9991
2 52637  53.2192 309.8423 0001946  95.2208 264.9006 15.08822184198129
STARLINK-3941           
1 52638U 22052AS  25342.22334614  .00000310  00000+0  37573-4 0  9998
2 52638  53.2171 319.7292 0001369  93.0080 267.1069 15.08843749197992
STARLINK-3968           
1 52639U 22052AT  25342.18747056  .00000865  00000+0  72412-4 0  9998
2 52639  53.2199 309.8901 0001162  94.3880 265.7245 15.08839452198125
STARLINK-3977           
1 52640U 22052AU  25342.20587171  .00000287  00000+0  36131-4 0  9999
2 52640  53.2193 309.8376 0001417  89.3552 270.7603 15.08840373197318
STARLINK-3991           
1 52641U 22052AV  25342.20317527 -.00002787  00000+0 -15720-3 0  9995
2 52641  53.2180 310.0224 0001219  87.9019 272.2113 15.08820859197324
STARLINK-3971           
1 52642U 22052AW  25342.19485399 -.00001482  00000+0 -75108-4 0  9995
2 52642  53.2180 309.8555 0001292  94.1622 265.9518 15.08815798197312
